[
  {
    "OBJECT_NAME": "STARLINK-35222",
    "OBJECT_ID": "25212B",
    "EPOCH": "2025-11-11T00:11:06.385920",
    "MEAN_MOTION": 15.30226608,
    "ECCENTRICITY": 0.0002194,
    "INCLINATION": 53.1484,
    "RA_OF_ASC_NODE": 176.8849,
    "ARG_OF_PERICENTER": 91.623,
    "MEAN_ANOMALY": 268.5022,
    "EPHEMERIS_TYPE": 0,
    "CLASSIFICATION_TYPE": "U",
    "NORAD_CAT_ID": 65677,
    "ELEMENT_SET_NO": 999,
    "REV_AT_EPOCH": 908,
    "BSTAR": 0.0013643,
    "MEAN_MOTION_DOT": 0.00040302,
    "MEAN_MOTION_DDOT": 0.0,
    "TLE_LINE1": "1 65677U 25212B   25315.00771280  .00040302  00000+0  13643-2 0  9991",
    "TLE_LINE2": "2 65677  53.1484 176.8849 0002194  91.6230 268.5022 15.30226608  9083",
    "COMMENT": "Grouped by shell and plane from TLE"
  },
  {
    "OBJECT_NAME": "STARLINK-35233",
    "OBJECT_ID": "25212C",
    "EPOCH": "2025-11-11T00:58:12.129888",
    "MEAN_MOTION": 15.30228964,
    "ECCENTRICITY": 4.61e-05,
    "INCLINATION": 53.1579,
    "RA_OF_ASC_NODE": 177.0891,
    "ARG_OF_PERICENTER": 332.9091,
    "MEAN_ANOMALY": 27.1885,
    "EPHEMERIS_TYPE": 0,
    "CLASSIFICATION_TYPE": "U",
    "NORAD_CAT_ID": 65678,
    "ELEMENT_SET_NO": 999,
    "REV_AT_EPOCH": 908,
    "BSTAR": 0.0016,
    "MEAN_MOTION_DOT": 0.00047374,
    "MEAN_MOTION_DDOT": 0.0,
    "TLE_LINE1": "1 65678U 25212C   25315.04041817  .00047374  00000+0  16000-2 0  9998",
    "TLE_LINE2": "2 65678  53.1579 177.0891 0000461 332.9091  27.1885 15.30228964  9083",
    "COMMENT": "Grouped by shell and plane from TLE"
  },
  {
    "OBJECT_NAME": "STARLINK-35205",
    "OBJECT_ID": "25212D",
    "EPOCH": "2025-11-11T00:49:04.656288",
    "MEAN_MOTION": 15.30235474,
    "ECCENTRICITY": 0.000118,
    "INCLINATION": 53.16,
    "RA_OF_ASC_NODE": 177.0476,
    "ARG_OF_PERICENTER": 246.2939,
    "MEAN_ANOMALY": 113.7938,
    "EPHEMERIS_TYPE": 0,
    "CLASSIFICATION_TYPE": "U",
    "NORAD_CAT_ID": 65679,
    "ELEMENT_SET_NO": 999,
    "REV_AT_EPOCH": 902,
    "BSTAR": 0.0013483,
    "MEAN_MOTION_DOT": 0.00039831,
    "MEAN_MOTION_DDOT": 0.0,
    "TLE_LINE1": "1 65679U 25212D   25315.03408167  .00039831  00000+0  13483-2 0  9994",
    "TLE_LINE2": "2 65679  53.1600 177.0476 0001180 246.2939 113.7938 15.30235474  9024",
    "COMMENT": "Grouped by shell and plane from TLE"
  },
  {
    "OBJECT_NAME": "STARLINK-35070",
    "OBJECT_ID": "25212E",
    "EPOCH": "2025-11-11T01:13:14.457792",
    "MEAN_MOTION": 15.30210939,
    "ECCENTRICITY": 9.78e-05,
    "INCLINATION": 53.1556,
    "RA_OF_ASC_NODE": 176.4399,
    "ARG_OF_PERICENTER": 85.6718,
    "MEAN_ANOMALY": 274.4394,
    "EPHEMERIS_TYPE": 0,
    "CLASSIFICATION_TYPE": "U",
    "NORAD_CAT_ID": 65680,
    "ELEMENT_SET_NO": 999,
    "REV_AT_EPOCH": 908,
    "BSTAR": 0.0011537000000000001,
    "MEAN_MOTION_DOT": 0.00033978,
    "MEAN_MOTION_DDOT": 0.0,
    "TLE_LINE1": "1 65680U 25212E   25315.05086178  .00033978  00000+0  11537-2 0  9996",
    "TLE_LINE2": "2 65680  53.1556 176.4399 0000978  85.6718 274.4394 15.30210939  9083",
    "COMMENT": "Grouped by shell and plane from TLE"
  },
  {
    "OBJECT_NAME": "STARLINK-35230",
    "OBJECT_ID": "25212F",
    "EPOCH": "2025-11-11T00:20:12.550560",
    "MEAN_MOTION": 15.30223879,
    "ECCENTRICITY": 4.24e-05,
    "INCLINATION": 53.1633,
    "RA_OF_ASC_NODE": 176.9204,
    "ARG_OF_PERICENTER": 191.0638,
    "MEAN_ANOMALY": 169.0353,
    "EPHEMERIS_TYPE": 0,
    "CLASSIFICATION_TYPE": "U",
    "NORAD_CAT_ID": 65681,
    "ELEMENT_SET_NO": 999,
    "REV_AT_EPOCH": 908,
    "BSTAR": 0.0013922000000000001,
    "MEAN_MOTION_DOT": 0.00041131,
    "MEAN_MOTION_DDOT": 0.0,
    "TLE_LINE1": "1 65681U 25212F   25315.01403415  .00041131  00000+0  13922-2 0  9990",
    "TLE_LINE2": "2 65681  53.1633 176.9204 0000424 191.0638 169.0353 15.30223879  9080",
    "COMMENT": "Grouped by shell and plane from TLE"
  },
  {
    "OBJECT_NAME": "STARLINK-35235",
    "OBJECT_ID": "25212G",
    "EPOCH": "2025-11-10T15:42:50.582304",
    "MEAN_MOTION": 15.30237283,
    "ECCENTRICITY": 0.0001197,
    "INCLINATION": 53.1563,
    "RA_OF_ASC_NODE": 178.2324,
    "ARG_OF_PERICENTER": 112.5825,
    "MEAN_ANOMALY": 247.5303,
    "EPHEMERIS_TYPE": 0,
    "CLASSIFICATION_TYPE": "U",
    "NORAD_CAT_ID": 65682,
    "ELEMENT_SET_NO": 999,
    "REV_AT_EPOCH": 897,
    "BSTAR": 0.0018846,
    "MEAN_MOTION_DOT": 0.00055944,
    "MEAN_MOTION_DDOT": 0.0,
    "TLE_LINE1": "1 65682U 25212G   25314.65475211  .00055944  00000+0  18846-2 0  9990",
    "TLE_LINE2": "2 65682  53.1563 178.2324 0001197 112.5825 247.5303 15.30237283  8973",
    "COMMENT": "Grouped by shell and plane from TLE"
  },
  {
    "OBJECT_NAME": "STARLINK-34886",
    "OBJECT_ID": "25212H",
    "EPOCH": "2025-11-10T23:57:24.896448",
    "MEAN_MOTION": 15.30228672,
    "ECCENTRICITY": 3.13e-05,
    "INCLINATION": 53.1599,
    "RA_OF_ASC_NODE": 176.8222,
    "ARG_OF_PERICENTER": 193.6206,
    "MEAN_ANOMALY": 166.4786,
    "EPHEMERIS_TYPE": 0,
    "CLASSIFICATION_TYPE": "U",
    "NORAD_CAT_ID": 65683,
    "ELEMENT_SET_NO": 999,
    "REV_AT_EPOCH": 902,
    "BSTAR": 0.0014158999999999999,
    "MEAN_MOTION_DOT": 0.0004185,
    "MEAN_MOTION_DDOT": 0.0,
    "TLE_LINE1": "1 65683U 25212H   25314.99820482  .00041850  00000+0  14159-2 0  9996",
    "TLE_LINE2": "2 65683  53.1599 176.8222 0000313 193.6206 166.4786 15.30228672  9029",
    "COMMENT": "Grouped by shell and plane from TLE"
  },
  {
    "OBJECT_NAME": "STARLINK-34795",
    "OBJECT_ID": "25212J",
    "EPOCH": "2025-11-10T22:52:13.853568",
    "MEAN_MOTION": 15.30220203,
    "ECCENTRICITY": 0.0001472,
    "INCLINATION": 53.1597,
    "RA_OF_ASC_NODE": 177.2515,
    "ARG_OF_PERICENTER": 266.9007,
    "MEAN_ANOMALY": 93.1825,
    "EPHEMERIS_TYPE": 0,
    "CLASSIFICATION_TYPE": "U",
    "NORAD_CAT_ID": 65684,
    "ELEMENT_SET_NO": 999,
    "REV_AT_EPOCH": 901,
    "BSTAR": 0.0006424800000000001,
    "MEAN_MOTION_DOT": 0.00018729,
    "MEAN_MOTION_DDOT": 0.0,
    "TLE_LINE1": "1 65684U 25212J   25314.95293812  .00018729  00000+0  64248-3 0  9998",
    "TLE_LINE2": "2 65684  53.1597 177.2515 0001472 266.9007  93.1825 15.30220203  9019",
    "COMMENT": "Grouped by shell and plane from TLE"
  },
  {
    "OBJECT_NAME": "STARLINK-35145",
    "OBJECT_ID": "25212K",
    "EPOCH": "2025-11-11T00:53:38.959872",
    "MEAN_MOTION": 15.30208821,
    "ECCENTRICITY": 0.0001248,
    "INCLINATION": 53.157,
    "RA_OF_ASC_NODE": 177.0652,
    "ARG_OF_PERICENTER": 85.3207,
    "MEAN_ANOMALY": 274.7937,
    "EPHEMERIS_TYPE": 0,
    "CLASSIFICATION_TYPE": "U",
    "NORAD_CAT_ID": 65685,
    "ELEMENT_SET_NO": 999,
    "REV_AT_EPOCH": 902,
    "BSTAR": 0.0015752,
    "MEAN_MOTION_DOT": 0.00046601,
    "MEAN_MOTION_DDOT": 0.0,
    "TLE_LINE1": "1 65685U 25212K   25315.03725648  .00046601  00000+0  15752-2 0  9991",
    "TLE_LINE2": "2 65685  53.1570 177.0652 0001248  85.3207 274.7937 15.30208821  9021",
    "COMMENT": "Grouped by shell and plane from TLE"
  },
  {
    "OBJECT_NAME": "STARLINK-35137",
    "OBJECT_ID": "25212L",
    "EPOCH": "2025-11-10T23:55:21.397152",
    "MEAN_MOTION": 15.3966538,
    "ECCENTRICITY": 0.0001039,
    "INCLINATION": 53.1568,
    "RA_OF_ASC_NODE": 174.6353,
    "ARG_OF_PERICENTER": 83.4875,
    "MEAN_ANOMALY": 276.6249,
    "EPHEMERIS_TYPE": 0,
    "CLASSIFICATION_TYPE": "U",
    "NORAD_CAT_ID": 65686,
    "ELEMENT_SET_NO": 999,
    "REV_AT_EPOCH": 905,
    "BSTAR": 0.0007427200000000001,
    "MEAN_MOTION_DOT": 0.00029468,
    "MEAN_MOTION_DDOT": 0.0,
    "TLE_LINE1": "1 65686U 25212L   25314.99677543  .00029468  00000+0  74272-3 0  9991",
    "TLE_LINE2": "2 65686  53.1568 174.6353 0001039  83.4875 276.6249 15.39665380  9054",
    "COMMENT": "Grouped by shell and plane from TLE"
  },
  {
    "OBJECT_NAME": "STARLINK-34856",
    "OBJECT_ID": "25212M",
    "EPOCH": "2025-11-10T23:52:51.081024",
    "MEAN_MOTION": 15.30237023,
    "ECCENTRICITY": 0.000134,
    "INCLINATION": 53.1631,
    "RA_OF_ASC_NODE": 176.7972,
    "ARG_OF_PERICENTER": 200.8162,
    "MEAN_ANOMALY": 159.2784,
    "EPHEMERIS_TYPE": 0,
    "CLASSIFICATION_TYPE": "U",
    "NORAD_CAT_ID": 65687,
    "ELEMENT_SET_NO": 999,
    "REV_AT_EPOCH": 902,
    "BSTAR": 0.0011967,
    "MEAN_MOTION_DOT": 0.00035294,
    "MEAN_MOTION_DDOT": 0.0,
    "TLE_LINE1": "1 65687U 25212M   25314.99503566  .00035294  00000+0  11967-2 0  9990",
    "TLE_LINE2": "2 65687  53.1631 176.7972 0001340 200.8162 159.2784 15.30237023  9022",
    "COMMENT": "Grouped by shell and plane from TLE"
  },
  {
    "OBJECT_NAME": "STARLINK-34930",
    "OBJECT_ID": "25212N",
    "EPOCH": "2025-11-11T00:06:32.389056",
    "MEAN_MOTION": 15.30230061,
    "ECCENTRICITY": 0.000104,
    "INCLINATION": 53.1627,
    "RA_OF_ASC_NODE": 176.8591,
    "ARG_OF_PERICENTER": 89.1211,
    "MEAN_ANOMALY": 270.9909,
    "EPHEMERIS_TYPE": 0,
    "CLASSIFICATION_TYPE": "U",
    "NORAD_CAT_ID": 65688,
    "ELEMENT_SET_NO": 999,
    "REV_AT_EPOCH": 907,
    "BSTAR": 0.0013824,
    "MEAN_MOTION_DOT": 0.00040847,
    "MEAN_MOTION_DDOT": 0.0,
    "TLE_LINE1": "1 65688U 25212N   25315.00454154  .00040847  00000+0  13824-2 0  9996",
    "TLE_LINE2": "2 65688  53.1627 176.8591 0001040  89.1211 270.9909 15.30230061  9076",
    "COMMENT": "Grouped by shell and plane from TLE"
  },
  {
    "OBJECT_NAME": "STARLINK-34875",
    "OBJECT_ID": "25212P",
    "EPOCH": "2025-11-11T00:44:30.990336",
    "MEAN_MOTION": 15.3023468,
    "ECCENTRICITY": 0.0001818,
    "INCLINATION": 53.158,
    "RA_OF_ASC_NODE": 177.025,
    "ARG_OF_PERICENTER": 222.9466,
    "MEAN_ANOMALY": 137.1393,
    "EPHEMERIS_TYPE": 0,
    "CLASSIFICATION_TYPE": "U",
    "NORAD_CAT_ID": 65689,
    "ELEMENT_SET_NO": 999,
    "REV_AT_EPOCH": 907,
    "BSTAR": 0.0011351,
    "MEAN_MOTION_DOT": 0.00033448,
    "MEAN_MOTION_DDOT": 0.0,
    "TLE_LINE1": "1 65689U 25212P   25315.03091424  .00033448  00000+0  11351-2 0  9999",
    "TLE_LINE2": "2 65689  53.1580 177.0250 0001818 222.9466 137.1393 15.30234680  9074",
    "COMMENT": "Grouped by shell and plane from TLE"
  }
]